Name,Organisation,Type,Country,Building,Address,Postcode,L1,L3,Lat,Lon,Phone1,Phone2,Email,Fax,Comments
"Simmons Office","Example.co.uk","Field","Greenland","Q Skinner Building","777-939 Ac Rd.","P6 0WF","Perth","Bentonville","-80","-15","1 18 424 4777-0537","1 28 529 2862-7844","pede@liberoat.org","1 61 886 3539-5933",
"Townsend Office","Example.edu","Headquarters","Iceland","V Velazquez Building","578-4097 Posuere St.","A48 3KM","Selkirkshire","Weirton","87","65","1 18 981 8592-4716","1 17 120 1694-0368","imperdiet@aliquetnecimperdiet.org","1 97 689 4386-7584",
"Marquez Office","Example.com","Warehouse","Lesotho","U Contreras Building","289-9700 Sit St.","X5J 7D1","New York","Milford","-10","127","1 28 479 1765-9480","1 90 190 9437-6515","ipsum@ligula.ca","1 42 411 4888-7368",
"Snyder Office","Example.edu","Headquarters","Tanzania, United Republic of","U Shaw Building","Ap #454-4440 Dolor St.","P4 3LG","Washington","York","44","78","1 23 584 1117-0950","1 22 553 9172-6933","risus.In.mi@turpisnec.ca","1 68 543 6643-6497",
"Drake Office","Example.org","Warehouse","Heard Island and Mcdonald Islands","C Chambers Building","3708 Sed Ave","WY0 5KJ","Indiana","Highland Park","-15","-93","1 59 591 9948-2590","1 39 494 3847-2790","dolor@enimSed.edu","1 15 796 7815-1751",
"Mclean Office","Example.net","National","Bulgaria","Q Coffey Building","6623 Tincidunt Ave","P92 4BW","Maine","Richmond","31","-38","1 67 340 9415-6322","1 11 826 5299-2850","ligula@nequeNullamut.org","1 48 188 9305-9371",
"Anderson Office","Example.com","Regional","China","J Logan Building","P.O. Box 418, 4384 Nunc Rd.","H1M 3O4","Ontario","Chickasha","19","115","1 70 725 9551-0807","1 93 205 4007-6449","justo@cursus.com","1 86 101 1561-6513",
"Jacobs Office","Example.co.uk","Warehouse","Christmas Island","Q Rojas Building","P.O. Box 154, 258 Imperdiet Road","E2P 8H2","New Hampshire","Auburn","61","11","1 29 246 4276-0384","1 49 440 6664-9883","fames.ac@nislQuisque.com","1 64 610 1386-3157",
"Contreras Office","Example.org","Warehouse","Thailand","Z Lamb Building","925-5240 Nibh. St.","P9J 4O7","Nunavut","Morgantown","83","-152","1 15 727 2290-8938","1 32 423 9163-7498","mollis.Phasellus.libero@consectetuereuismod.edu","1 52 879 1091-8847",
"Britt Office","Example.co.vn","Field","Central African Republic","M Christensen Building","Ap #243-1105 Diam Av.","14005","Alaska","Yonkers","22","102","1 48 896 4277-4920","1 88 293 2071-0319","mauris.a@Maurisblanditenim.org","1 30 526 8445-8389",
"Byrd Office","Example.co.uk","Warehouse","Croatia","K Mccormick Building","P.O. Box 477, 7709 Dictum Ave","K2C 8VZ","Nottinghamshire","Hot Springs","-60","39","1 53 838 2543-0848","1 89 635 1668-4601","Mauris.vestibulum@liberoDonec.edu","1 99 827 1723-8087",
"Gibbs Office","Example.com","National","Indonesia","O Chambers Building","Ap #904-7624 Ornare, Av.","O5Y 7W8","Nebraska","Kenosha","38","167","1 72 863 2255-4042","1 73 915 5642-5202","convallis.ligula.Donec@condimentumDonecat.org","1 49 513 7381-8960",
"Yang Office","Example.com","National","Falkland Islands (Malvinas)","P Burke Building","466-7876 Aliquet Av.","CO8X 7SV","Pembrokeshire","Plantation","-9","159","1 27 997 2803-4017","1 49 790 3890-5742","vel@egestashendreritneque.ca","1 22 710 9002-4142",
"Velazquez Office","Example.org","National","Colombia","N Hatfield Building","425-1222 Est, Av.","D9 5FF","Alberta","Stillwater","80","-109","1 44 477 6692-8370","1 20 430 9405-6259","Donec.elementum.lorem@nequesedsem.edu","1 22 490 9691-5386",
"Beach Office","Example.co.uk","Regional","United States Minor Outlying Islands","Z Bentley Building","129 Lorem Avenue","Z23 6FO","Minnesota","Barre","-43","151","1 93 923 5256-1559","1 55 969 9936-1986","pretium.neque@milaciniamattis.org","1 61 684 1097-2532",
"Church Office","Example.net","National","Kenya","H Morrow Building","7968 Molestie Rd.","RB5 7AG","Alberta","Northampton","-18","-26","1 43 506 3888-3414","1 90 354 9507-6271","non.sollicitudin.a@porttitorerosnec.com","1 36 932 3110-5629",
"Finch Office","Example.org","National","Jordan","T Velez Building","P.O. Box 560, 8820 Mauris. Street","14925","South Yorkshire","Irvine","80","103","1 57 115 1457-8541","1 76 668 5734-0898","a.purus@Aenean.edu","1 83 398 3340-2943",
"Baird Office","Example.co.vn","National","American Samoa","J Welch Building","Ap #223-132 Parturient Rd.","X2M 4E7","Newfoundland and Labrador","Sonoma","42","-51","1 96 535 6645-5891","1 50 231 1564-6373","purus.mauris@ac.edu","1 20 646 2017-6068",
"York Office","Example.co.uk","Regional","Japan","C Cash Building","786-7460 Montes, Rd.","K1G 5V8","Nunavut","Daly City","56","136","1 17 352 4257-4640","1 91 883 3967-7432","felis@pellentesquetellus.edu","1 65 507 8336-8009",
"Riggs Office","Example.net","Regional","Svalbard and Jan Mayen","M Stephenson Building","Ap #924-1975 Dignissim Rd.","Z1K 3R2","Newfoundland and Labrador","Woonsocket","53","-120","1 69 987 5683-4361","1 16 436 3306-0298","ipsum.Donec@egetvolutpatornare.com","1 42 429 9982-4295",
"Tillman Office","Example.org","Field","Turks and Caicos Islands","E Soto Building","Ap #221-4370 Pharetra. St.","K0 3HH","Prince Edward Island","Simi Valley","39","-105","1 51 453 3681-5632","1 89 420 8601-9494","Curae.Phasellus.ornare@ligulaelit.com","1 86 830 2983-4467",
"Carney Office","Example.co.uk","Field","Sierra Leone","H Stephens Building","Ap #951-1398 Vitae Rd.","D8G 9C7","Mississippi","Grand Rapids","47","-31","1 16 787 1988-8193","1 88 541 6245-3100","augue.eu@Sedmolestie.com","1 58 926 9248-1574",
"Walls Office","Example.net","Field","Montserrat","Z Woods Building","559-1086 Metus Street","72010","South Dakota","Bandera","-17","66","1 92 204 4584-1841","1 17 719 5816-0286","ante@Suspendisseseddolor.com","1 67 572 8213-4986",
"Griffin Office","Example.org","Regional","Tajikistan","Z Austin Building","331-3060 Facilisis Rd.","56279","Peebles-shire","San Diego","-48","95","1 19 626 2464-3649","1 27 244 2014-7014","porttitor.tellus.non@posuere.com","1 31 957 1935-2001",
"Gray Office","Example.edu","National","Svalbard and Jan Mayen","R Farrell Building","P.O. Box 436, 6752 Odio Rd.","41886","East Sussex","Artesia","-21","85","1 66 339 2733-5696","1 20 180 9218-1809","dignissim.Maecenas@mi.edu","1 76 405 5798-2689",
"Warren Office","Example.net","Warehouse","Austria","C Graham Building","P.O. Box 791, 9488 Arcu. Street","51549","Rhode Island","The Dalles","50","63","1 55 545 3539-5706","1 12 497 2586-0841","Fusce.fermentum@Class.ca","1 57 593 7466-0366",
"Browning Office","Example.com","National","Australia","S Black Building","Ap #639-1178 Et Street","K7 0BK","Colorado","Seal Beach","-71","149","1 27 213 2086-0831","1 20 730 3783-7252","lectus.pede@tristique.edu","1 31 434 6323-4176",
"Greer Office","Example.com","Field","Ireland","X Cox Building","P.O. Box 737, 6903 Nisi Rd.","E2L 4M9","Montana","West Hartford","37","49","1 75 136 3226-4110","1 28 779 8933-4286","sagittis.augue.eu@Etiambibendum.com","1 42 578 8904-4264",
"Clay Office","Example.org","Warehouse","Chad","C Sandoval Building","Ap #213-6962 Odio. Rd.","58863","Alabama","Fairfield","-1","149","1 59 956 3075-2560","1 11 272 1218-9517","adipiscing.enim@Ut.ca","1 59 706 1136-4925",
"Oneill Office","Example.com","Headquarters","Monaco","Q Williams Building","254-9544 Et St.","P3L 9W9","Michigan","Montebello","-35","-41","1 38 324 1616-6826","1 34 647 2611-5106","venenatis.a@lectus.edu","1 55 479 5411-0947",
"Gamble Office","Example.org","Headquarters","Iran, Islamic Republic of","L Hudson Building","Ap #263-6561 Dui. St.","65376","Northwest Territories","Virginia Beach","77","-1","1 56 173 7533-9786","1 84 854 7101-9756","nunc.nulla.vulputate@Inat.edu","1 24 398 9413-4810",
"Sweet Office","Example.co.vn","Warehouse","Bahamas","C Morrison Building","821-8775 Orci Rd.","65288","Wyoming","Ketchikan","22","53","1 76 327 1653-6143","1 68 254 8290-0877","dolor.Fusce.mi@Suspendisse.edu","1 90 417 5738-4537",
"Tyson Office","Example.com","Headquarters","Oman","C Haley Building","P.O. Box 788, 8264 Sagittis Av.","51690","Michigan","Minot","56","95","1 33 519 4159-7806","1 73 440 3019-9203","lacus.varius.et@velarcueu.org","1 36 246 6515-3069",
"Grant Office","Example.edu","Headquarters","Pakistan","O Carson Building","P.O. Box 877, 1467 Dolor, Rd.","U9U 9O1","Dyfed","East Rutherford","-21","127","1 31 257 4930-1976","1 25 758 5564-1733","Nunc.sed.orci@tellusNunc.ca","1 84 131 5355-5421",
"Sweet Office","Example.org","Regional","British Indian Ocean Territory","I Wood Building","P.O. Box 649, 7035 Ante Street","V7K 4G9","Co. Londonderry","Gold Beach","52","15","1 13 232 1441-4787","1 14 524 3986-2747","Aliquam.fringilla.cursus@pharetra.com","1 10 642 6977-4562",
"Parrish Office","Example.net","Regional","Saint Pierre and Miquelon","Z Weber Building","931-7310 Felis Ave","ZP3T 3VH","Yukon","Rock Island","68","22","1 74 945 2520-5179","1 14 944 5728-6586","eu.metus@tristiquesenectus.com","1 25 460 5135-7426",
"Le Office","Example.org","Headquarters","American Samoa","N Gonzales Building","6425 Felis Road","G1T 5K3","New Jersey","Hoover","-53","-60","1 35 400 3309-4348","1 73 576 7842-2731","turpis@Etiambibendum.org","1 82 982 2220-6655",
"Ballard Office","Example.edu","Regional","France","P Armstrong Building","P.O. Box 684, 9164 A Ave","E1 8MG","Nova Scotia","Manitowoc","76","-152","1 72 862 8802-1089","1 70 660 2829-2444","felis@feugiatLoremipsum.org","1 62 425 3056-2651",
"Reed Office","Example.com","National","Japan","T Mitchell Building","100-8995 Erat Rd.","M1J 1S5","Pennsylvania","Saint Louis","6","158","1 43 722 7641-2258","1 55 738 3413-1793","leo.Morbi@mollis.ca","1 54 676 3314-6304",
"Duran Office","Example.com","Headquarters","Belize","T Terrell Building","Ap #751-4010 Eu, Avenue","B58 1CN","Co. Carlow","Port Washington","-77","70","1 27 365 1031-9138","1 70 305 4645-7008","arcu@disparturient.com","1 71 646 6408-4123",
"Mcknight Office","Example.co.uk","Headquarters","Ecuador","E Howard Building","598-8903 Non Ave","56465","Quebec","Port Huron","-77","90","1 79 732 2677-9197","1 93 483 3307-0558","arcu@Donecegestas.com","1 21 254 4211-1309",
"Garza Office","Example.edu","Headquarters","Gambia","Q Perez Building","P.O. Box 148, 1934 Pede Avenue","R58 8TA","Sussex","Eureka","-59","25","1 29 103 6428-1971","1 97 423 1828-5203","elit@anteNuncmauris.edu","1 85 278 8216-4045",
"Wall Office","Example.org","Field","Botswana","N Ellison Building","Ap #621-4124 Sem Av.","HR6M 3AO","New Mexico","Medford","55","0","1 50 337 3295-8744","1 38 461 1263-2109","malesuada.id.erat@Utsemper.org","1 97 835 2646-4119",
"Flowers Office","Example.org","Headquarters","Mozambique","U Montoya Building","113-1353 Accumsan Road","S3Y 2Y3","Iowa","Wisconsin Rapids","36","176","1 19 475 1636-2175","1 57 750 4806-7307","blandit.Nam.nulla@pharetranibhAliquam.ca","1 82 358 3119-4360",
"Pugh Office","Example.org","Headquarters","Russian Federation","Q Mcguire Building","394-1048 Tellus. Av.","90109","Humberside","Crown Point","-35","-64","1 66 581 3700-4669","1 51 368 3593-6880","dui.quis@arcu.ca","1 83 364 5355-8228",
"Chen Office","Example.co.vn","Warehouse","Namibia","B Oneill Building","6785 Non Road","I3Q 7U2","Angus","San Diego","49","33","1 22 914 7753-3231","1 62 833 2608-4244","tempor.erat.neque@magnis.com","1 48 453 2284-6188",
"Nieves Office","Example.net","Regional","Mauritius","Y Huffman Building","270-9747 Eu, St.","29013","Co. Down","Ann Arbor","-63","-121","1 27 982 7098-5473","1 51 559 3883-9202","vel.nisl@non.org","1 46 728 4381-8292",
"Robertson Office","Example.edu","Regional","Guadeloupe","Z Perez Building","Ap #129-1952 Erat, Rd.","B7Q 9X5","New Brunswick","Valencia","9","-33","1 96 680 7040-7463","1 26 549 6265-1179","feugiat.tellus.lorem@tinciduntnequevitae.edu","1 80 870 5754-5919",
"Hooper Office","Example.net","Warehouse","Zambia","E Howard Building","774-8586 Laoreet Av.","X62 4EV","Co. Fermanagh","Cambridge","-21","-118","1 92 137 1910-4292","1 76 191 1634-7280","urna.Vivamus.molestie@Sed.org","1 23 650 6526-9551",
"England Office","Example.edu","Warehouse","New Zealand","X Williamson Building","127-3968 Nulla St.","M6 0SI","Yukon","Joplin","-12","-30","1 66 734 4849-5483","1 52 492 9490-1203","mauris@volutpatNulladignissim.org","1 39 364 7596-0344",
"Short Office","Example.co.uk","National","New Caledonia","E Hayes Building","7151 Maecenas Av.","J2V 9C4","Co. Kildare","Greensboro","22","-79","1 25 134 1669-3017","1 89 460 8897-9374","aliquet@Etiamlaoreetlibero.com","1 93 638 6055-3670",
"Irwin Office","Example.edu","Warehouse","Hungary","X Davidson Building","225-3542 Phasellus St.","EN4R 0VH","Tyne and Wear","Greensboro","53","-126","1 69 868 8320-2406","1 63 605 1521-4582","enim@etultrices.com","1 31 380 1230-5811",
"Reese Office","Example.net","Headquarters","Serbia and Montenegro","E Buckley Building","Ap #738-5025 Curabitur Road","NZ8W 0KR","California","Grand Island","36","85","1 26 111 8099-2328","1 17 873 8518-9805","ac.nulla.In@liberoProinsed.com","1 12 524 3332-5754",
"Dorsey Office","Example.co.uk","Field","Saint Helena","Q Mclaughlin Building","P.O. Box 801, 3935 Sit St.","U8J 2C9","Kentucky","Twin Falls","36","-41","1 56 635 7944-5117","1 29 279 9630-7293","tellus.sem@sit.edu","1 88 713 5089-6904",
"Larsen Office","Example.co.uk","Warehouse","Reunion","H Buckner Building","826-1541 Aliquam Street","56035","Ontario","Kansas City","39","40","1 45 198 5330-0430","1 78 990 8468-7250","justo.Proin.non@rutrumurna.edu","1 80 388 8218-2613",
"Dyer Office","Example.co.vn","Field","Libyan Arab Jamahiriya","B Rowe Building","866-3409 Non, Street","13931","Aberdeenshire","Highland Park","-40","125","1 73 930 8892-3733","1 15 231 8547-9609","suscipit@bibendumsed.com","1 18 438 2284-5578",
"Andrews Office","Example.edu","Headquarters","Malta","H Mcconnell Building","Ap #920-8242 Et, St.","R3N 5U0","Washington","Waterloo","64","121","1 48 535 1826-4544","1 34 337 9724-5360","semper@ligula.edu","1 40 775 7683-0385",
"Salinas Office","Example.net","Headquarters","Grenada","H Romero Building","Ap #845-637 Varius. St.","Q02 4JH","Derbyshire","Laredo","43","-9","1 53 266 5258-9829","1 40 166 7681-0192","orci.sem.eget@rutrumjustoPraesent.ca","1 29 186 6014-0060",
"Bright Office","Example.org","National","Azerbaijan","I Charles Building","P.O. Box 972, 6603 Laoreet, Ave","28842","Virginia","Altoona","28","-150","1 28 899 8727-8306","1 12 675 4042-5720","lorem.semper@ornare.com","1 20 210 9937-7773",
"Watson Office","Example.org","Warehouse","Comoros","B Hays Building","541-7393 Quam Rd.","V4P 1FI","Oklahoma","Whittier","59","-81","1 50 956 1252-6553","1 80 136 9820-0680","et@consectetueradipiscingelit.ca","1 50 706 8310-0763",
"Holden Office","Example.com","Warehouse","Turkmenistan","V Knight Building","Ap #482-5098 Luctus Rd.","E2V 3JW","Western Isles","Morrison","65","39","1 90 443 4662-1416","1 25 250 3896-1761","ornare@Nuncquisarcu.ca","1 67 400 7769-8105",
"Palmer Office","Example.edu","National","Turks and Caicos Islands","R Hull Building","Ap #337-8882 Sociis St.","YR0Q 6ZT","Co. Leitrim","Cumberland","86","-137","1 33 791 2206-9685","1 97 526 2327-3048","sem.egestas.blandit@In.ca","1 30 722 9425-4939",
"Hobbs Office","Example.org","National","Saint Helena","R Black Building","Ap #198-8942 Fermentum Av.","C3U 4X1","New Brunswick","Greensboro","16","-68","1 11 814 7224-2920","1 64 907 1354-2665","feugiat.tellus.lorem@risusMorbimetus.edu","1 94 919 7322-6256",
"Nicholson Office","Example.net","Warehouse","Brunei Darussalam","R Murray Building","322 Urna. St.","14547","Quebec","Rockville","18","-85","1 47 910 1369-1758","1 85 780 5951-4295","sem@Lorem.org","1 77 488 5254-4303",
"Albert Office","Example.net","Headquarters","Virgin Islands, U.S.","U Moody Building","996-4048 Morbi Rd.","22176","North Dakota","College Park","-78","131","1 29 412 1566-5248","1 97 834 7568-3333","augue@ligulaAenean.edu","1 72 584 6411-0458",
"Neal Office","Example.edu","Headquarters","Virgin Islands, U.S.","W Savage Building","2610 Mauris St.","C9C 5CG","Co. Longford","Warwick","-38","-161","1 68 492 6502-5810","1 11 346 4479-5050","vulputate.lacus.Cras@arcuSedet.ca","1 68 451 1113-6057",
"Bentley Office","Example.edu","Field","Macao","Z Beasley Building","1700 Nibh St.","TY4X 1WP","Manitoba","Champaign","-37","106","1 68 773 2947-0320","1 43 871 8209-0604","libero.nec.ligula@velitQuisque.edu","1 22 896 1908-9409",
"Sims Office","Example.com","National","Faroe Islands","A Forbes Building","P.O. Box 212, 9638 Tincidunt, Ave","Q2Z 7Z9","Virginia","Knoxville","90","-17","1 14 270 9072-3710","1 93 993 6132-0340","ac@vestibulumnec.ca","1 64 934 9312-6846",
"Moss Office","Example.co.vn","Headquarters","Bangladesh","H Burgess Building","P.O. Box 303, 5059 Eu St.","Y0 8BI","Nunavut","Rockville","12","138","1 56 242 6416-4291","1 40 481 8727-8537","dictum@eutempor.com","1 15 657 3998-4175",
"Thomas Office","Example.net","Headquarters","Senegal","L West Building","4246 Ridiculus Av.","Y1R 8BN","Illinois","Rancho Santa Margarita","-69","102","1 29 620 2269-0643","1 53 877 7946-9991","habitant@orciluctuset.org","1 11 222 3593-5579",
